OBJECT_NAME,OBJECT_ID,EPOCH,MEAN_MOTION,ECCENTRICITY,INCLINATION,RA_OF_ASC_NODE,ARG_OF_PERICENTER,MEAN_ANOMALY,EPHEMERIS_TYPE,CLASSIFICATION_TYPE,NORAD_CAT_ID,ELEMENT_SET_NO,REV_AT_EPOCH,BSTAR,MEAN_MOTION_DOT,MEAN_MOTION_DDOT
STARLINK-37592,2026-101A,2026-06-04T22:00:05.000256,15.39571599,.00018714,97.2850,10.8810,79.5194,80.1876,0,U,69025,999,598,-.50945434E-1,-.1804956E-1,0
STARLINK-37637,2026-101B,2026-06-04T03:10:22.713312,15.49216958,.00018149,97.2821,10.0374,91.1192,269.0268,0,U,69026,999,456,.10409863E-2,.56994E-3,0
STARLINK-37548,2026-101C,2026-06-04T04:07:04.485216,15.49219922,.00018751,97.2824,10.1380,73.3497,286.7960,0,U,69027,999,457,.69579086E-3,.37976E-3,0
STARLINK-37634,2026-101D,2026-06-04T22:00:05.000256,15.49136610,.00018137,97.2842,10.9485,94.3798,235.4826,0,U,69028,999,598,.11034378E-2,.60274E-3,0
STARLINK-37635,2026-101E,2026-06-04T22:00:05.000256,15.37280046,.00024348,97.2846,10.9062,124.9012,92.3812,0,U,69029,999,595,-.98037319E-1,-.313358E-1,0
STARLINK-37615,2026-101F,2026-06-04T22:00:05.000256,15.43404608,.00022013,97.2847,10.9256,97.2199,170.9321,0,U,69030,999,598,-.44526322E-1,-.179432E-1,0
STARLINK-37240,2026-101G,2026-06-04T02:44:10.010400,15.49181521,.00018058,97.2864,10.0622,103.0770,257.0683,0,U,69031,999,456,.70128598E-3,.38227E-3,0
STARLINK-37596,2026-101H,2026-06-04T03:33:51.206976,15.49185736,.00015533,97.2845,10.0190,111.9866,248.1551,0,U,69032,999,456,.10231027E-2,.55944E-3,0
STARLINK-37591,2026-101J,2026-06-04T02:46:51.847104,15.49204659,.00025783,97.2827,10.0620,137.5080,222.6371,0,U,69033,999,456,.10847515E-2,.59389E-3,0
STARLINK-37611,2026-101K,2026-06-04T22:00:05.000256,15.44840595,.00021367,97.2845,10.8906,78.2655,115.3090,0,U,69034,999,598,-.58662046E-1,-.2441423E-1,0
STARLINK-37512,2026-101L,2026-06-04T14:09:58.584096,15.49210603,.00013391,97.2834,10.4876,15.9223,344.2070,0,U,69035,999,463,.11148724E-2,.61062E-3,0
STARLINK-37609,2026-101M,2026-06-04T14:20:19.594464,15.49245275,.00015238,97.2833,10.4786,13.7451,346.3842,0,U,69036,999,463,.56218205E-3,.30665E-3,0
STARLINK-37608,2026-101N,2026-06-04T02:47:46.466592,15.49198960,.00023025,97.2830,10.0589,86.9793,273.1722,0,U,69037,999,456,.9824493E-3,.53729E-3,0
STARLINK-37466,2026-101P,2026-06-04T14:25:46.880256,15.49220919,.00015703,97.2821,10.4722,47.8282,312.3102,0,U,69038,999,463,.58936326E-3,.3213E-3,0
STARLINK-37612,2026-101Q,2026-06-04T22:00:05.000256,15.42924946,.00021145,97.2844,10.8840,77.3910,98.8295,0,U,69039,999,598,-.63288912E-1,-.2464871E-1,0
STARLINK-37616,2026-101R,2026-06-04T22:00:05.000256,15.33340215,.00016491,97.2850,10.8918,72.7149,118.3364,0,U,69040,999,598,.22316273E-2,.72426E-3,0
STARLINK-37614,2026-101S,2026-06-04T13:35:55.186944,15.49196969,.00014332,97.2845,10.5202,45.4171,314.7197,0,U,69041,999,463,.82504596E-3,.45051E-3,0
STARLINK-37644,2026-101T,2026-06-04T04:15:21.396672,15.49180261,.00013875,97.2853,10.1303,96.6943,263.4466,0,U,69042,999,457,.98667173E-3,.53924E-3,0
STARLINK-37571,2026-101U,2026-06-04T04:12:30.918240,15.49203759,.00016758,97.2833,10.1336,85.4137,274.7305,0,U,69043,999,457,.14128371E-2,.77551E-3,0
STARLINK-37664,2026-101V,2026-06-04T03:32:15.616608,15.49200131,.00027603,97.2824,10.0188,74.6238,285.5318,0,U,69044,999,456,.85058214E-3,.46466E-3,0
STARLINK-37667,2026-101W,2026-06-04T22:00:05.000256,15.40260325,.00016686,97.2845,10.9706,108.5311,262.0626,0,U,69045,999,598,-.66451964E-1,-.2377524E-1,0
STARLINK-37666,2026-101X,2026-06-04T22:00:05.000256,15.44849791,.00013431,97.2842,10.9941,84.7651,347.8690,0,U,69046,999,598,-.57114676E-1,-.2384095E-1,0
STARLINK-37576,2026-101Y,2026-06-04T22:00:05.000256,15.45897221,.00014797,97.2844,11.0046,94.7270,0.1957,0,U,69047,999,595,-.56440968E-1,-.2435963E-1,0
STARLINK-37663,2026-101Z,2026-06-04T18:03:29.723040,15.49203859,.00015757,97.2876,10.7290,84.9975,275.1456,0,U,69048,999,466,.15832226E-2,.8702E-3,0
TIANZHOU-10,2026-102A,2026-06-04T21:09:33.370272,15.60264942,.00095733,41.4694,36.8620,343.5452,16.5074,0,U,69049,999,389,.28405096E-3,.23646E-3,0
QIANFAN-127,2026-104A,2026-06-04T21:06:40.019904,14.21690645,.00052408,88.9863,343.0109,139.5777,220.5804,0,U,69073,999,334,.46545129E-4,.117E-5,0
QIANFAN-128,2026-104B,2026-06-04T20:41:49.202592,14.18045665,.00045207,88.9864,343.0274,136.5932,223.5613,0,U,69074,999,333,.48280936E-4,.113E-5,0
QIANFAN-129,2026-104C,2026-06-04T21:51:48.753216,14.25500254,.00048646,88.9863,342.9968,145.4524,214.6986,0,U,69075,999,335,.51098713E-4,.135E-5,0
QIANFAN-130,2026-104D,2026-06-04T20:23:31.242624,14.18734905,.00045759,88.9863,343.0252,127.6438,232.5167,0,U,69076,999,333,.49060885E-4,.116E-5,0
QIANFAN-131,2026-104E,2026-06-04T21:27:29.173824,14.20505474,.00040872,88.9862,343.0129,143.0960,217.0512,0,U,69077,999,334,.40906642E-4,.102E-5,0
