STARLINK-37592          
1 69025U 26101A   26155.91672454 -.01804956  00000+0 -50945-1 0  9997
2 69025  97.2850  10.8810 0001871  79.5194  80.1876 15.39571599  5981
STARLINK-37637          
1 69026U 26101B   26155.13220733  .00056994  00000+0  10410-2 0  9993
2 69026  97.2821  10.0374 0001814  91.1192 269.0268 15.49216958  4564
STARLINK-37548          
1 69027U 26101C   26155.17157969  .00037976  00000+0  69579-3 0  9998
2 69027  97.2824  10.1380 0001875  73.3497 286.7960 15.49219922  4573
STARLINK-37634          
1 69028U 26101D   26155.91672454  .00060274  00000+0  11034-2 0  9991
2 69028  97.2842  10.9485 0001813  94.3798 235.4826 15.49136610  5987
STARLINK-37635          
1 69029U 26101E   26155.91672454 -.03133580  00000+0 -98037-1 0  9995
2 69029  97.2846  10.9062 0002434 124.9012  92.3812 15.37280046  5954
STARLINK-37615          
1 69030U 26101F   26155.91672454 -.01794320  00000+0 -44526-1 0  9994
2 69030  97.2847  10.9256 0002201  97.2199 170.9321 15.43404608  5982
STARLINK-37240          
1 69031U 26101G   26155.11400475  .00038227  00000+0  70129-3 0  9993
2 69031  97.2864  10.0622 0001805 103.0770 257.0683 15.49181521  4563
STARLINK-37596          
1 69032U 26101H   26155.14850934  .00055944  00000+0  10231-2 0  9998
2 69032  97.2845  10.0190 0001553 111.9866 248.1551 15.49185736  4564
STARLINK-37591          
1 69033U 26101J   26155.11587786  .00059389  00000+0  10848-2 0  9999
2 69033  97.2827  10.0620 0002578 137.5080 222.6371 15.49204659  4566
STARLINK-37611          
1 69034U 26101K   26155.91672454 -.02441423  00000+0 -58662-1 0  9998
2 69034  97.2845  10.8906 0002136  78.2655 115.3090 15.44840595  5984
STARLINK-37512          
1 69035U 26101L   26155.59026139  .00061062  00000+0  11149-2 0  9999
2 69035  97.2834  10.4876 0001339  15.9223 344.2070 15.49210603  4636
STARLINK-37609          
1 69036U 26101M   26155.59744901  .00030665  00000+0  56218-3 0  9996
2 69036  97.2833  10.4786 0001523  13.7451 346.3842 15.49245275  4633
STARLINK-37608          
1 69037U 26101N   26155.11651003  .00053729  00000+0  98245-3 0  9997
2 69037  97.2830  10.0589 0002302  86.9793 273.1722 15.49198960  4569
STARLINK-37466          
1 69038U 26101P   26155.60123704  .00032130  00000+0  58936-3 0  9990
2 69038  97.2821  10.4722 0001570  47.8282 312.3102 15.49220919  4634
STARLINK-37612          
1 69039U 26101Q   26155.91672454 -.02464871  00000+0 -63289-1 0  9996
2 69039  97.2844  10.8840 0002114  77.3910  98.8295 15.42924946  5988
STARLINK-37616          
1 69040U 26101R   26155.91672454  .00072426  00000+0  22316-2 0  9992
2 69040  97.2850  10.8918 0001649  72.7149 118.3364 15.33340215  5984
STARLINK-37614          
1 69041U 26101S   26155.56661096  .00045051  00000+0  82505-3 0  9995
2 69041  97.2845  10.5202 0001433  45.4171 314.7197 15.49196969  4634
STARLINK-37644          
1 69042U 26101T   26155.17733098  .00053924  00000+0  98667-3 0  9999
2 69042  97.2853  10.1303 0001387  96.6943 263.4466 15.49180261  4575
STARLINK-37571          
1 69043U 26101U   26155.17535785  .00077551  00000+0  14128-2 0  9994
2 69043  97.2833  10.1336 0001675  85.4137 274.7305 15.49203759  4576
STARLINK-37664          
1 69044U 26101V   26155.14740297  .00046466  00000+0  85058-3 0  9990
2 69044  97.2824  10.0188 0002760  74.6238 285.5318 15.49200131  4563
STARLINK-37667          
1 69045U 26101W   26155.91672454 -.02377524  00000+0 -66452-1 0  9996
2 69045  97.2845  10.9706 0001668 108.5311 262.0626 15.40260325  5988
STARLINK-37666          
1 69046U 26101X   26155.91672454 -.02384095  00000+0 -57115-1 0  9994
2 69046  97.2842  10.9941 0001343  84.7651 347.8690 15.44849791  5986
STARLINK-37576          
1 69047U 26101Y   26155.91672454 -.02435963  00000+0 -56441-1 0  9997
2 69047  97.2844  11.0046 0001479  94.7270   0.1957 15.45897221  5959
STARLINK-37663          
1 69048U 26101Z   26155.75242735  .00087020  00000+0  15832-2 0  9998
2 69048  97.2876  10.7290 0001575  84.9975 275.1456 15.49203859  4669
TIANZHOU-10             
1 69049U 26102A   26155.88163623  .00023646  00000+0  28405-3 0  9997
2 69049  41.4694  36.8620 0009573 343.5452  16.5074 15.60264942  3895
QIANFAN-127             
1 69073U 26104A   26155.87962986  .00000117  00000+0  46545-4 0  9998
2 69073  88.9863 343.0109 0005240 139.5777 220.5804 14.21690645  3348
QIANFAN-128             
1 69074U 26104B   26155.86237503  .00000113  00000+0  48281-4 0  9993
2 69074  88.9864 343.0274 0004520 136.5932 223.5613 14.18045665  3335
QIANFAN-129             
1 69075U 26104C   26155.91098094  .00000135  00000+0  51099-4 0  9995
2 69075  88.9863 342.9968 0004864 145.4524 214.6986 14.25500254  3354
QIANFAN-130             
1 69076U 26104D   26155.84966716  .00000116  00000+0  49061-4 0  9998
2 69076  88.9863 343.0252 0004575 127.6438 232.5167 14.18734905  3330
QIANFAN-131             
1 69077U 26104E   26155.89408766  .00000102  00000+0  40907-4 0  9995
2 69077  88.9862 343.0129 0004087 143.0960 217.0512 14.20505474  3346
